[{"OBJECT_NAME":"TECHNOSAT","OBJECT_ID":"2017-042E","EPOCH":"2026-03-09T21:27:07.546176","MEAN_MOTION":15.04288119,"ECCENTRICITY":0.00196291,"INCLINATION":97.4156,"RA_OF_ASC_NODE":230.4429,"ARG_OF_PERICENTER":75.0719,"MEAN_ANOMALY":285.2679,"EPHEMERIS_TYPE":0,"CLASSIFICATION_TYPE":"U","NORAD_CAT_ID":42829,"ELEMENT_SET_NO":999,"REV_AT_EPOCH":47177,"BSTAR":0.00032015047,"MEAN_MOTION_DOT":4.417e-5,"MEAN_MOTION_DDOT":0},{"OBJECT_NAME":"STARLINK-5640","OBJECT_ID":"2023-014AX","EPOCH":"2026-03-09T12:43:34.446720","MEAN_MOTION":14.98346394,"ECCENTRICITY":0.00033925,"INCLINATION":70.0004,"RA_OF_ASC_NODE":104.9084,"ARG_OF_PERICENTER":275.406,"MEAN_ANOMALY":84.6712,"EPHEMERIS_TYPE":0,"CLASSIFICATION_TYPE":"U","NORAD_CAT_ID":55436,"ELEMENT_SET_NO":999,"REV_AT_EPOCH":17104,"BSTAR":0.0001988912,"MEAN_MOTION_DOT":2.282e-5,"MEAN_MOTION_DDOT":0}]
